ANDESITE                
1 45726U 20037D   26068.46720933  .00004478  00000+0  31876-3 0  9992
2 45726  97.7890 260.5174 0009953 141.6473 218.5462 15.05115692310662
STARLINK-30341          
1 57714U 23129S   26067.18631902  .00000616  00000+0  59514-4 0  9992
2 57714  43.0034 128.0013 0001831 279.5727  80.4909 15.03350644140430
